{
  "type": "FeatureCollection",
  "features": [
    {
      "type": "Feature",
      "properties": {
        "norad_id": 32160,
        "name": "FENGYUN 1C DEB",
        "group": "fengyun-1c-debris",
        "lat": 63.26887074271833,
        "lon": -16.45851148994656,
        "alt_km": 789.9753672867364,
        "timestamp": "2025-12-14T05:42:18.745998+00:00",
        "meta_object_name": "FENGYUN 1C DEB",
        "meta_object_id": "1999-025CTE",
        "meta_epoch": "2025-12-12T21:26:10.613760",
        "meta_mean_motion": 14.37568487,
        "meta_eccentricity": 0.00820527,
        "meta_inclination": 98.8811,
        "meta_ra_of_asc_node": 144.0659,
        "meta_arg_of_pericenter": 358.4462,
        "meta_mean_anomaly": 1.6457,
        "meta_ephemeris_type": 0,
        "meta_classification_type": "U",
        "meta_norad_cat_id": 32160,
        "meta_element_set_no": 999,
        "meta_rev_at_epoch": 95889,
        "meta_bstar": 0.00064978761,
        "meta_mean_motion_dot": 1.977e-05,
        "meta_mean_motion_ddot": 0,
        "tle_line1": "1 32160U 99025CTE 25346.89317840  .00001977  00000+0  64979-3 0  9998",
        "tle_line2": "2 32160  98.8811 144.0659 0082052 358.4462   1.6457 14.37568487958892"
      },
      "geometry": {
        "type": "Point",
        "coordinates": [
          -16.45851148994656,
          63.26887074271833
        ]
      }
    },
    {
      "type": "Feature",
      "properties": {
        "norad_id": 32161,
        "name": "FENGYUN 1C DEB",
        "group": "fengyun-1c-debris",
        "lat": 77.52710605989947,
        "lon": 48.17543601606868,
        "alt_km": 975.0850142312283,
        "timestamp": "2025-12-14T05:42:18.746008+00:00",
        "meta_object_name": "FENGYUN 1C DEB",
        "meta_object_id": "1999-025CTF",
        "meta_epoch": "2025-12-08T12:16:43.883328",
        "meta_mean_motion": 14.01862269,
        "meta_eccentricity": 0.01354176,
        "meta_inclination": 98.8305,
        "meta_ra_of_asc_node": 87.2791,
        "meta_arg_of_pericenter": 291.8401,
        "meta_mean_anomaly": 66.8408,
        "meta_ephemeris_type": 0,
        "meta_classification_type": "U",
        "meta_norad_cat_id": 32161,
        "meta_element_set_no": 999,
        "meta_rev_at_epoch": 63370,
        "meta_bstar": 0.00067399448,
        "meta_mean_motion_dot": 1.067e-05,
        "meta_mean_motion_ddot": 0,
        "tle_line1": "1 32161U 99025CTF 25342.51161902  .00001067  00000+0  67399-3 0  9999",
        "tle_line2": "2 32161  98.8305  87.2791 0135417 291.8401  66.8408 14.01862269633708"
      },
      "geometry": {
        "type": "Point",
        "coordinates": [
          48.17543601606868,
          77.52710605989947
        ]
      }
    },
    {
      "type": "Feature",
      "properties": {
        "norad_id": 32162,
        "name": "FENGYUN 1C DEB",
        "group": "fengyun-1c-debris",
        "lat": 59.869519409465546,
        "lon": 16.89665721464324,
        "alt_km": 689.2830135266368,
        "timestamp": "2025-12-14T05:42:18.746019+00:00",
        "meta_object_name": "FENGYUN 1C DEB",
        "meta_object_id": "1999-025CTG",
        "meta_epoch": "2025-12-09T02:14:01.110624",
        "meta_mean_motion": 14.61952906,
        "meta_eccentricity": 0.00479287,
        "meta_inclination": 99.4626,
        "meta_ra_of_asc_node": 27.7136,
        "meta_arg_of_pericenter": 181.6641,
        "meta_mean_anomaly": 178.4404,
        "meta_ephemeris_type": 0,
        "meta_classification_type": "U",
        "meta_norad_cat_id": 32162,
        "meta_element_set_no": 999,
        "meta_rev_at_epoch": 94865,
        "meta_bstar": 0.0016371454,
        "meta_mean_motion_dot": 8.282e-05,
        "meta_mean_motion_ddot": 0,
        "tle_line1": "1 32162U 99025CTG 25343.09306841  .00008282  00000+0  16371-2 0  9996",
        "tle_line2": "2 32162  99.4626  27.7136 0047928 181.6641 178.4404 14.61952906948658"
      },
      "geometry": {
        "type": "Point",
        "coordinates": [
          16.89665721464324,
          59.869519409465546
        ]
      }
    },
    {
      "type": "Feature",
      "properties": {
        "norad_id": 32163,
        "name": "FENGYUN 1C DEB",
        "group": "fengyun-1c-debris",
        "lat": 14.721945864240062,
        "lon": 176.78330726157373,
        "alt_km": 774.7412386463229,
        "timestamp": "2025-12-14T05:42:18.746029+00:00",
        "meta_object_name": "FENGYUN 1C DEB",
        "meta_object_id": "1999-025CTH",
        "meta_epoch": "2025-12-12T06:21:19.094976",
        "meta_mean_motion": 14.43120772,
        "meta_eccentricity": 0.00516687,
        "meta_inclination": 99.5465,
        "meta_ra_of_asc_node": 352.0409,
        "meta_arg_of_pericenter": 36.0432,
        "meta_mean_anomaly": 324.422,
        "meta_ephemeris_type": 0,
        "meta_classification_type": "U",
        "meta_norad_cat_id": 32163,
        "meta_element_set_no": 999,
        "meta_rev_at_epoch": 60969,
        "meta_bstar": 0.0015195332,
        "meta_mean_motion_dot": 5.133e-05,
        "meta_mean_motion_ddot": 0,
        "tle_line1": "1 32163U 99025CTH 25346.26480434  .00005133  00000+0  15195-2 0  9995",
        "tle_line2": "2 32163  99.5465 352.0409 0051668  36.0432 324.4220 14.43120772609690"
      },
      "geometry": {
        "type": "Point",
        "coordinates": [
          176.78330726157373,
          14.721945864240062
        ]
      }
    },
    {
      "type": "Feature",
      "properties": {
        "norad_id": 32167,
        "name": "FENGYUN 1C DEB",
        "group": "fengyun-1c-debris",
        "lat": 58.19869010646837,
        "lon": 176.61886379759798,
        "alt_km": 735.5913586653478,
        "timestamp": "2025-12-14T05:42:18.746040+00:00",
        "meta_object_name": "FENGYUN 1C DEB",
        "meta_object_id": "1999-025CTM",
        "meta_epoch": "2025-12-10T05:30:19.403136",
        "meta_mean_motion": 14.30972124,
        "meta_eccentricity": 0.0165377,
        "meta_inclination": 98.4694,
        "meta_ra_of_asc_node": 338.8066,
        "meta_arg_of_pericenter": 65.1476,
        "meta_mean_anomaly": 296.6802,
        "meta_ephemeris_type": 0,
        "meta_classification_type": "U",
        "meta_norad_cat_id": 32167,
        "meta_element_set_no": 999,
        "meta_rev_at_epoch": 62639,
        "meta_bstar": 0.00054816,
        "meta_mean_motion_dot": 1.629e-05,
        "meta_mean_motion_ddot": 0,
        "tle_line1": "1 32167U 99025CTM 25344.22939124  .00001629  00000+0  54816-3 0  9998",
        "tle_line2": "2 32167  98.4694 338.8066 0165377  65.1476 296.6802 14.30972124626395"
      },
      "geometry": {
        "type": "Point",
        "coordinates": [
          176.61886379759798,
          58.19869010646837
        ]
      }
    },
    {
      "type": "Feature",
      "properties": {
        "norad_id": 32168,
        "name": "FENGYUN 1C DEB",
        "group": "fengyun-1c-debris",
        "lat": 51.567464552551925,
        "lon": -107.2641897912298,
        "alt_km": 986.6264399595884,
        "timestamp": "2025-12-14T05:42:18.746050+00:00",
        "meta_object_name": "FENGYUN 1C DEB",
        "meta_object_id": "1999-025CTN",
        "meta_epoch": "2025-12-10T10:59:29.491872",
        "meta_mean_motion": 13.86097811,
        "meta_eccentricity": 0.02431154,
        "meta_inclination": 101.6564,
        "meta_ra_of_asc_node": 52.9606,
        "meta_arg_of_pericenter": 243.555,
        "meta_mean_anomaly": 114.0469,
        "meta_ephemeris_type": 0,
        "meta_classification_type": "U",
        "meta_norad_cat_id": 32168,
        "meta_element_set_no": 999,
        "meta_rev_at_epoch": 63448,
        "meta_bstar": 0.0059949425,
        "meta_mean_motion_dot": 8.658e-05,
        "meta_mean_motion_ddot": 0,
        "tle_line1": "1 32168U 99025CTN 25344.45798023  .00008658  00000+0  59949-2 0  9995",
        "tle_line2": "2 32168 101.6564  52.9606 0243115 243.5550 114.0469 13.86097811634487"
      },
      "geometry": {
        "type": "Point",
        "coordinates": [
          -107.2641897912298,
          51.567464552551925
        ]
      }
    },
    {
      "type": "Feature",
      "properties": {
        "norad_id": 32169,
        "name": "FENGYUN 1C DEB",
        "group": "fengyun-1c-debris",
        "lat": 41.30927547113624,
        "lon": 4.576116712512673,
        "alt_km": 642.5543178274502,
        "timestamp": "2025-12-14T05:42:18.746060+00:00",
        "meta_object_name": "FENGYUN 1C DEB",
        "meta_object_id": "1999-025CTP",
        "meta_epoch": "2025-12-10T19:16:32.438208",
        "meta_mean_motion": 14.67617508,
        "meta_eccentricity": 0.00335817,
        "meta_inclination": 98.5579,
        "meta_ra_of_asc_node": 173.3839,
        "meta_arg_of_pericenter": 126.1641,
        "meta_mean_anomaly": 234.2677,
        "meta_ephemeris_type": 0,
        "meta_classification_type": "U",
        "meta_norad_cat_id": 32169,
        "meta_element_set_no": 999,
        "meta_rev_at_epoch": 96590,
        "meta_bstar": 0.0079467409,
        "meta_mean_motion_dot": 0.00045777,
        "meta_mean_motion_ddot": 0,
        "tle_line1": "1 32169U 99025CTP 25344.80315322  .00045777  00000+0  79467-2 0  9992",
        "tle_line2": "2 32169  98.5579 173.3839 0033581 126.1641 234.2677 14.67617508965906"
      },
      "geometry": {
        "type": "Point",
        "coordinates": [
          4.576116712512673,
          41.30927547113624
        ]
      }
    }
  ]
}